{
  "type": "FeatureCollection",
  "features": [
    {
      "type": "Feature",
      "properties": {
        "norad_id": 66909,
        "name": "SILVERSAT",
        "group": "stations",
        "lat": -30.045033348780994,
        "lon": 60.144648919224586,
        "alt_km": 409.08825351863015,
        "timestamp": "2025-12-23T18:59:30.790845+00:00",
        "meta_object_name": "SILVERSAT",
        "meta_object_id": "1998-067XV",
        "meta_epoch": "2025-12-22T12:16:28.422912",
        "meta_mean_motion": 15.52898333,
        "meta_eccentricity": 0.0003866,
        "meta_inclination": 51.6306,
        "meta_ra_of_asc_node": 93.7929,
        "meta_arg_of_pericenter": 288.2093,
        "meta_mean_anomaly": 71.8476,
        "meta_ephemeris_type": 0,
        "meta_classification_type": "U",
        "meta_norad_cat_id": 66909,
        "meta_element_set_no": 999,
        "meta_rev_at_epoch": 313,
        "meta_bstar": 0.0011325313,
        "meta_mean_motion_dot": 0.00071888,
        "meta_mean_motion_ddot": 0,
        "tle_line1": "1 66909U 98067XV  25356.51144008  .00071888  00000+0  11325-2 0  9999",
        "tle_line2": "2 66909  51.6306  93.7929 0003866 288.2093  71.8476 15.52898333  3134"
      },
      "geometry": {
        "type": "Point",
        "coordinates": [
          60.144648919224586,
          -30.045033348780994
        ]
      }
    },
    {
      "type": "Feature",
      "properties": {
        "norad_id": 66910,
        "name": "1998-067XW",
        "group": "stations",
        "lat": -23.115824570142806,
        "lon": 67.63426202475404,
        "alt_km": 409.82019065364693,
        "timestamp": "2025-12-23T18:59:30.790854+00:00",
        "meta_object_name": "1998-067XW",
        "meta_object_id": "1998-067XW",
        "meta_epoch": "2025-12-23T06:45:57.042144",
        "meta_mean_motion": 15.52963068,
        "meta_eccentricity": 0.00039303,
        "meta_inclination": 51.6302,
        "meta_ra_of_asc_node": 89.9385,
        "meta_arg_of_pericenter": 266.0255,
        "meta_mean_anomaly": 94.0285,
        "meta_ephemeris_type": 0,
        "meta_classification_type": "U",
        "meta_norad_cat_id": 66910,
        "meta_element_set_no": 999,
        "meta_rev_at_epoch": 325,
        "meta_bstar": 0.0010076721,
        "meta_mean_motion_dot": 0.00063997,
        "meta_mean_motion_ddot": 0,
        "tle_line1": "1 66910U 98067XW  25357.28191021  .00063997  00000+0  10077-2 0  9998",
        "tle_line2": "2 66910  51.6302  89.9385 0003930 266.0255  94.0285 15.52963068  3257"
      },
      "geometry": {
        "type": "Point",
        "coordinates": [
          67.63426202475404,
          -23.115824570142806
        ]
      }
    },
    {
      "type": "Feature",
      "properties": {
        "norad_id": 66911,
        "name": "1998-067XX",
        "group": "stations",
        "lat": -8.647599238080716,
        "lon": 80.44074382483859,
        "alt_km": 407.69043580275684,
        "timestamp": "2025-12-23T18:59:30.790864+00:00",
        "meta_object_name": "1998-067XX",
        "meta_object_id": "1998-067XX",
        "meta_epoch": "2025-12-23T06:41:16.956672",
        "meta_mean_motion": 15.53428258,
        "meta_eccentricity": 0.00036741,
        "meta_inclination": 51.6305,
        "meta_ra_of_asc_node": 89.9162,
        "meta_arg_of_pericenter": 271.3133,
        "meta_mean_anomaly": 88.7437,
        "meta_ephemeris_type": 0,
        "meta_classification_type": "U",
        "meta_norad_cat_id": 66911,
        "meta_element_set_no": 999,
        "meta_rev_at_epoch": 324,
        "meta_bstar": 0.0011217181,
        "meta_mean_motion_dot": 0.00072588,
        "meta_mean_motion_ddot": 0,
        "tle_line1": "1 66911U 98067XX  25357.27866848  .00072588  00000+0  11217-2 0  9997",
        "tle_line2": "2 66911  51.6305  89.9162 0003674 271.3133  88.7437 15.53428258  3249"
      },
      "geometry": {
        "type": "Point",
        "coordinates": [
          80.44074382483859,
          -8.647599238080716
        ]
      }
    },
    {
      "type": "Feature",
      "properties": {
        "norad_id": 66912,
        "name": "1998-067XY",
        "group": "stations",
        "lat": -49.7208434684368,
        "lon": 18.29151486848714,
        "alt_km": 412.2585949458007,
        "timestamp": "2025-12-23T18:59:30.790873+00:00",
        "meta_object_name": "1998-067XY",
        "meta_object_id": "1998-067XY",
        "meta_epoch": "2025-12-22T13:57:42.061248",
        "meta_mean_motion": 15.52056622,
        "meta_eccentricity": 0.00039127,
        "meta_inclination": 51.6324,
        "meta_ra_of_asc_node": 93.5129,
        "meta_arg_of_pericenter": 278.0711,
        "meta_mean_anomaly": 81.9835,
        "meta_ephemeris_type": 0,
        "meta_classification_type": "U",
        "meta_norad_cat_id": 66912,
        "meta_element_set_no": 999,
        "meta_rev_at_epoch": 313,
        "meta_bstar": 0.00086867978,
        "meta_mean_motion_dot": 0.0005325,
        "meta_mean_motion_ddot": 0,
        "tle_line1": "1 66912U 98067XY  25356.58173682  .00053250  00000+0  86868-3 0  9998",
        "tle_line2": "2 66912  51.6324  93.5129 0003912 278.0711  81.9835 15.52056622  3132"
      },
      "geometry": {
        "type": "Point",
        "coordinates": [
          18.29151486848714,
          -49.7208434684368
        ]
      }
    }
  ]
}